[{"OBJECT_NAME":"IRIDIUM 103","OBJECT_ID":"2017-003B","EPOCH":"2026-03-09T15:54:14.180832","MEAN_MOTION":14.34218399,"ECCENTRICITY":0.00020548,"INCLINATION":86.3981,"RA_OF_ASC_NODE":130.0732,"ARG_OF_PERICENTER":88.2192,"MEAN_ANOMALY":271.9239,"EPHEMERIS_TYPE":0,"CLASSIFICATION_TYPE":"U","NORAD_CAT_ID":41918,"ELEMENT_SET_NO":999,"REV_AT_EPOCH":47896,"BSTAR":3.8019926e-5,"MEAN_MOTION_DOT":1.26e-6,"MEAN_MOTION_DDOT":0},{"OBJECT_NAME":"SL-8 DEB","OBJECT_ID":"1971-114E","EPOCH":"2026-02-27T04:05:14.886816","MEAN_MOTION":14.39732236,"ECCENTRICITY":0.00235166,"INCLINATION":74.0301,"RA_OF_ASC_NODE":350.6758,"ARG_OF_PERICENTER":359.5432,"MEAN_ANOMALY":0.5697,"EPHEMERIS_TYPE":0,"CLASSIFICATION_TYPE":"U","NORAD_CAT_ID":37886,"ELEMENT_SET_NO":999,"REV_AT_EPOCH":66543,"BSTAR":8.4668799e-5,"MEAN_MOTION_DOT":2.39e-6,"MEAN_MOTION_DDOT":0}]
